ADRAS-J                 
1 58992U 24034A   24110.42827075  .00010035  00000+0  94608-3 0  9997
2 58992  98.2077  80.8310 0042646 241.2250 118.4682 14.93318901  9093
